[{"OBJECT_NAME":"CUBEBEL 2 (EU11S)","OBJECT_ID":"2023-091K","EPOCH":"2026-03-09T21:40:29.186112","MEAN_MOTION":15.26706784,"ECCENTRICITY":0.00118653,"INCLINATION":97.517,"RA_OF_ASC_NODE":131.3579,"ARG_OF_PERICENTER":105.889,"MEAN_ANOMALY":254.3657,"EPHEMERIS_TYPE":0,"CLASSIFICATION_TYPE":"U","NORAD_CAT_ID":57175,"ELEMENT_SET_NO":999,"REV_AT_EPOCH":14914,"BSTAR":0.00056688644,"MEAN_MOTION_DOT":0.00014859,"MEAN_MOTION_DDOT":0},{"OBJECT_NAME":"STARLINK-31584","OBJECT_ID":"2024-098E","EPOCH":"2026-03-09T00:11:51.537696","MEAN_MOTION":15.27580285,"ECCENTRICITY":8.188e-5,"INCLINATION":42.9997,"RA_OF_ASC_NODE":281.7009,"ARG_OF_PERICENTER":257.1294,"MEAN_ANOMALY":102.9466,"EPHEMERIS_TYPE":0,"CLASSIFICATION_TYPE":"U","NORAD_CAT_ID":59862,"ELEMENT_SET_NO":999,"REV_AT_EPOCH":10174,"BSTAR":-2.0107732e-5,"MEAN_MOTION_DOT":-8.15e-6,"MEAN_MOTION_DDOT":0}]
